COSMOS 2529 (757)       
1 43687U 18086A   26058.37448306  .00000008  00000+0  00000+0 0  9993
2 43687  64.2955 196.2992 0007959 253.0448 106.8346  2.13101880 56941
COSMOS 2534 (758)       
1 44299U 19030A   26063.82267120  .00000008  00000+0  00000+0 0  9992
2 44299  64.3687 196.1275 0009607 279.9650  74.0554  2.13102294 52696
COSMOS 2544 (759)       
1 44850U 19088A   26065.26106608  .00000003  00000+0  00000+0 0  9996
2 44850  65.5071  77.1646 0015780 259.7620 100.0954  2.13101873 48524
COSMOS 2545 (760)       
1 45358U 20018A   26064.04887093 -.00000054  00000+0  00000+0 0  9991
2 45358  64.4172 316.0811 0008063 250.0323 109.9417  2.13102426 46443
COSMOS 2547 (705K)      
1 46805U 20075A   26065.64518105  .00000026  00000+0  00000+0 0  9992
2 46805  64.5994 195.8945 0006875 230.4824 129.4314  2.13100263 41728
COSMOS 2557 (706K)      
1 52984U 22075A   26063.93321719 -.00000057  00000+0  00000+0 0  9997
2 52984  64.3588 318.1599 0011575 283.5582  76.3723  2.13101614 28492
COSMOS 2559 (707K)      
1 54031U 22130A   26064.69111461 -.00000060  00000+0  00000+0 0  9993
2 54031  64.3310 318.2203 0010609 181.3136 178.7423  2.13101297 26488
COSMOS 2564 (761)       
1 54377U 22161A   26065.47314812  .00000025  00000+0  00000+0 0  9992
2 54377  64.7415 196.1184 0009461 210.1148 149.8044  2.13101994 25447
COSMOS 2569 (703K)      
1 57517U 23114A   26063.60906547  .00000011  00000+0  00000+0 0  9990
2 57517  65.2420  76.1460 0012898 291.6250  68.2783  2.13103963 20030
COSMOS 2584 (704K)      
1 63130U 25042A   26059.74188024  .00000039  00000+0  00000+0 0  9992
2 63130  65.0213  76.4877 0007822 236.2440 123.7373  2.13103267  7739
COSMOS 2596 (708K)      
1 65590U 25206B   26065.45409123 -.00000062  00000+0  00000+0 0  9994
2 65590  64.6931 318.5640 0012861 315.8873 223.8531  2.13100383  3723
